{"type": "FeatureCollection", "features": [ {"type": "Feature", "properties": {"norad_id": 42969, "name": "SENTINEL-5P", "group": "resource", "lat": -20.641386731867094, "lon": -74.80963319271709, "alt_km": 832.3566625384892, "timestamp": "2025-12-09T05:43:20.385325+00:00", "meta": {"OBJECT_NAME": "SENTINEL-5P", "OBJECT_ID": "2017-064A", "EPOCH": "2025-12-08T19:40:13.954080", "MEAN_MOTION": 14.19516133, "ECCENTRICITY": 9.54e-05, "INCLINATION": 98.7779, "RA_OF_ASC_NODE": 281.4386, "ARG_OF_PERICENTER": 87.1183, "MEAN_ANOMALY": 273.0102, "EPHEMERIS_TYPE": 0, "CLASSIFICATION_TYPE": "U", "NORAD_CAT_ID": 42969, "ELEMENT_SET_NO": 999, "REV_AT_EPOCH": 42255, "BSTAR": 0.00011662, "MEAN_MOTION_DOT": 2.02e-06, "MEAN_MOTION_DDOT": 0}, "tle": {"line1": "1 42969U 17064A   25342.81960595  .00000202  00000+0  11662-3 0  9999", "line2": "2 42969  98.7779 281.4386 0000954  87.1183 273.0102 14.19516133422554"}}, "geometry": {"type": "Point", "coordinates": [-74.80963319271709, -20.641386731867094]}}, {"type": "Feature", "properties": {"norad_id": 42987, "name": "SKYSAT-C11", "group": "resource", "lat": -73.80745200009277, "lon": 147.28994288057774, "alt_km": 432.8374860583481, "timestamp": "2025-12-09T05:43:20.385335+00:00", "meta": {"OBJECT_NAME": "SKYSAT-C11", "OBJECT_ID": "2017-068A", "EPOCH": "2025-12-08T08:19:03.552096", "MEAN_MOTION": 15.4717093, "ECCENTRICITY": 9.299e-05, "INCLINATION": 97.4146, "RA_OF_ASC_NODE": 119.7309, "ARG_OF_PERICENTER": 106.2293, "MEAN_ANOMALY": 253.9059, "EPHEMERIS_TYPE": 0, "CLASSIFICATION_TYPE": "U", "NORAD_CAT_ID": 42987, "ELEMENT_SET_NO": 999, "REV_AT_EPOCH": 45363, "BSTAR": 0.00053513536, "MEAN_MOTION_DOT": 0.00027139, "MEAN_MOTION_DDOT": 0}, "tle": {"line1": "1 42987U 17068A   25342.34656889  .00027139  00000+0  53514-3 0  9999", "line2": "2 42987  97.4146 119.7309 0000929 106.2293 253.9059 15.47170930453637"}}, "geometry": {"type": "Point", "coordinates": [147.28994288057774, -73.80745200009277]}}, {"type": "Feature", "properties": {"norad_id": 42988, "name": "SKYSAT-C10", "group": "resource", "lat": -17.930544576400873, "lon": -68.33872684226674, "alt_km": 474.7829279610205, "timestamp": "2025-12-09T05:43:20.385345+00:00", "meta": {"OBJECT_NAME": "SKYSAT-C10", "OBJECT_ID": "2017-068B", "EPOCH": "2025-12-08T19:27:19.435104", "MEAN_MOTION": 15.3193311, "ECCENTRICITY": 0.0005311, "INCLINATION": 97.4262, "RA_OF_ASC_NODE": 113.6514, "ARG_OF_PERICENTER": 114.6154, "MEAN_ANOMALY": 245.5642, "EPHEMERIS_TYPE": 0, "CLASSIFICATION_TYPE": "U", "NORAD_CAT_ID": 42988, "ELEMENT_SET_NO": 999, "REV_AT_EPOCH": 45319, "BSTAR": 0.00050452, "MEAN_MOTION_DOT": 0.00015498, "MEAN_MOTION_DDOT": 0}, "tle": {"line1": "1 42988U 17068B   25342.81064161  .00015498  00000+0  50452-3 0  9991", "line2": "2 42988  97.4262 113.6514 0005311 114.6154 245.5642 15.31933110453193"}}, "geometry": {"type": "Point", "coordinates": [-68.33872684226674, -17.930544576400873]}}, {"type": "Feature", "properties": {"norad_id": 42989, "name": "SKYSAT-C9", "group": "resource", "lat": -4.7972523782632095, "lon": 114.0917017846385, "alt_km": 463.6130480150705, "timestamp": "2025-12-09T05:43:20.385356+00:00", "meta": {"OBJECT_NAME": "SKYSAT-C9", "OBJECT_ID": "2017-068C", "EPOCH": "2025-12-08T18:47:53.100672", "MEAN_MOTION": 15.35896579, "ECCENTRICITY": 0.0010683, "INCLINATION": 97.4192, "RA_OF_ASC_NODE": 113.0065, "ARG_OF_PERICENTER": 100.3673, "MEAN_ANOMALY": 259.8775, "EPHEMERIS_TYPE": 0, "CLASSIFICATION_TYPE": "U", "NORAD_CAT_ID": 42989, "ELEMENT_SET_NO": 999, "REV_AT_EPOCH": 45347, "BSTAR": 0.00055919, "MEAN_MOTION_DOT": 0.00019517, "MEAN_MOTION_DDOT": 0}, "tle": {"line1": "1 42989U 17068C   25342.78325348  .00019517  00000+0  55919-3 0  9994", "line2": "2 42989  97.4192 113.0065 0010683 100.3673 259.8775 15.35896579453474"}}, "geometry": {"type": "Point", "coordinates": [114.0917017846385, -4.7972523782632095]}}, {"type": "Feature", "properties": {"norad_id": 42990, "name": "SKYSAT-C8", "group": "resource", "lat": 5.341139824662048, "lon": 112.52502279941547, "alt_km": 468.5588578732577, "timestamp": "2025-12-09T05:43:20.385367+00:00", "meta": {"OBJECT_NAME": "SKYSAT-C8", "OBJECT_ID": "2017-068D", "EPOCH": "2025-12-08T20:17:53.638080", "MEAN_MOTION": 15.32788489, "ECCENTRICITY": 0.0001872, "INCLINATION": 97.4283, "RA_OF_ASC_NODE": 112.8297, "ARG_OF_PERICENTER": 4.1337, "MEAN_ANOMALY": 355.992, "EPHEMERIS_TYPE": 0, "CLASSIFICATION_TYPE": "U", "NORAD_CAT_ID": 42990, "ELEMENT_SET_NO": 999, "REV_AT_EPOCH": 45311, "BSTAR": 0.00053276, "MEAN_MOTION_DOT": 0.00016811, "MEAN_MOTION_DDOT": 0}, "tle": {"line1": "1 42990U 17068D   25342.84575970  .00016811  00000+0  53276-3 0  9999", "line2": "2 42990  97.4283 112.8297 0001872   4.1337 355.9920 15.32788489453117"}}, "geometry": {"type": "Point", "coordinates": [112.52502279941547, 5.341139824662048]}}, {"type": "Feature", "properties": {"norad_id": 42991, "name": "SKYSAT-C7", "group": "resource", "lat": -47.982318863955406, "lon": -74.05936732663531, "alt_km": 481.171663783688, "timestamp": "2025-12-09T05:43:20.385377+00:00", "meta": {"OBJECT_NAME": "SKYSAT-C7", "OBJECT_ID": "2017-068E", "EPOCH": "2025-12-08T19:19:28.087680", "MEAN_MOTION": 15.32193317, "ECCENTRICITY": 0.000781, "INCLINATION": 97.4291, "RA_OF_ASC_NODE": 113.8334, "ARG_OF_PERICENTER": 69.3012, "MEAN_ANOMALY": 290.9066, "EPHEMERIS_TYPE": 0, "CLASSIFICATION_TYPE": "U", "NORAD_CAT_ID": 42991, "ELEMENT_SET_NO": 999, "REV_AT_EPOCH": 45317, "BSTAR": 0.00049981, "MEAN_MOTION_DOT": 0.00015485, "MEAN_MOTION_DDOT": 0}, "tle": {"line1": "1 42991U 17068E   25342.80518620  .00015485  00000+0  49981-3 0  9999", "line2": "2 42991  97.4291 113.8334 0007810  69.3012 290.9066 15.32193317453176"}}, "geometry": {"type": "Point", "coordinates": [-74.05936732663531, -47.982318863955406]}}, {"type": "Feature", "properties": {"norad_id": 42992, "name": "SKYSAT-C6", "group": "resource", "lat": -4.319657425006892, "lon": 115.27427577930179, "alt_km": 475.73431502558196, "timestamp": "2025-12-09T05:43:20.385390+00:00", "meta": {"OBJECT_NAME": "SKYSAT-C6", "OBJECT_ID": "2017-068F", "EPOCH": "2025-12-08T20:19:54.821856", "MEAN_MOTION": 15.31364354, "ECCENTRICITY": 0.0005228, "INCLINATION": 97.4324, "RA_OF_ASC_NODE": 114.3171, "ARG_OF_PERICENTER": 93.2701, "MEAN_ANOMALY": 266.9138, "EPHEMERIS_TYPE": 0, "CLASSIFICATION_TYPE": "U", "NORAD_CAT_ID": 42992, "ELEMENT_SET_NO": 999, "REV_AT_EPOCH": 45316, "BSTAR": 0.0005162, "MEAN_MOTION_DOT": 0.00015579, "MEAN_MOTION_DDOT": 0}, "tle": {"line1": "1 42992U 17068F   25342.84716229  .00015579  00000+0  51620-3 0  9996", "line2": "2 42992  97.4324 114.3171 0005228  93.2701 266.9138 15.31364354453163"}}, "geometry": {"type": "Point", "coordinates": [115.27427577930179, -4.319657425006892]}}, {"type": "Feature", "properties": {"norad_id": 43111, "name": "CARTOSAT-2F", "group": "resource", "lat": -73.83753961978931, "lon": -165.83614544576864, "alt_km": 515.7876501260571, "timestamp": "2025-12-09T05:43:20.385400+00:00", "meta": {"OBJECT_NAME": "CARTOSAT-2F", "OBJECT_ID": "2018-004A", "EPOCH": "2025-12-08T20:41:48.476832", "MEAN_MOTION": 15.1920935, "ECCENTRICITY": 6.57e-05, "INCLINATION": 97.4316, "RA_OF_ASC_NODE": 40.5623, "ARG_OF_PERICENTER": 135.3791, "MEAN_ANOMALY": 224.7496, "EPHEMERIS_TYPE": 0, "CLASSIFICATION_TYPE": "U", "NORAD_CAT_ID": 43111, "ELEMENT_SET_NO": 999, "REV_AT_EPOCH": 43843, "BSTAR": 0.00021344, "MEAN_MOTION_DOT": 4.425e-05, "MEAN_MOTION_DDOT": 0}, "tle": {"line1": "1 43111U 18004A   25342.86236663  .00004425  00000+0  21344-3 0  9990", "line2": "2 43111  97.4316  40.5623 0000657 135.3791 224.7496 15.19209350438430"}}, "geometry": {"type": "Point", "coordinates": [-165.83614544576864, -73.83753961978931]}}, {"type": "Feature", "properties": {"norad_id": 43259, "name": "GAOFEN-1 02", "group": "resource", "lat": -20.235642635800108, "lon": -141.9757690190618, "alt_km": 644.8391167961045, "timestamp": "2025-12-09T05:43:20.385410+00:00", "meta": {"OBJECT_NAME": "GAOFEN-1 02", "OBJECT_ID": "2018-031A", "EPOCH": "2025-12-08T20:41:06.995328", "MEAN_MOTION": 14.76467755, "ECCENTRICITY": 0.0001412, "INCLINATION": 98.0808, "RA_OF_ASC_NODE": 40.6497, "ARG_OF_PERICENTER": 229.248, "MEAN_ANOMALY": 130.8607, "EPHEMERIS_TYPE": 0, "CLASSIFICATION_TYPE": "U", "NORAD_CAT_ID": 43259, "ELEMENT_SET_NO": 999, "REV_AT_EPOCH": 41461, "BSTAR": 0.00022752, "MEAN_MOTION_DOT": 1.532e-05, "MEAN_MOTION_DDOT": 0}, "tle": {"line1": "1 43259U 18031A   25342.86188652  .00001532  00000+0  22752-3 0  9997", "line2": "2 43259  98.0808  40.6497 0001412 229.2480 130.8607 14.76467755414616"}}, "geometry": {"type": "Point", "coordinates": [-141.9757690190618, -20.235642635800108]}}, {"type": "Feature", "properties": {"norad_id": 43260, "name": "GAOFEN-1 03", "group": "resource", "lat": -43.659811860811686, "lon": 48.6953119282272, "alt_km": 645.8436692674322, "timestamp": "2025-12-09T05:43:20.385421+00:00", "meta": {"OBJECT_NAME": "GAOFEN-1 03", "OBJECT_ID": "2018-031B", "EPOCH": "2025-12-08T20:09:46.617696", "MEAN_MOTION": 14.76425887, "ECCENTRICITY": 0.0002249, "INCLINATION": 98.0804, "RA_OF_ASC_NODE": 40.5052, "ARG_OF_PERICENTER": 339.0767, "MEAN_ANOMALY": 21.035, "EPHEMERIS_TYPE": 0, "CLASSIFICATION_TYPE": "U", "NORAD_CAT_ID": 43260, "ELEMENT_SET_NO": 999, "REV_AT_EPOCH": 41460, "BSTAR": 0.00028305, "MEAN_MOTION_DOT": 1.916e-05, "MEAN_MOTION_DDOT": 0}, "tle": {"line1": "1 43260U 18031B   25342.84012289  .00001916  00000+0  28305-3 0  9995", "line2": "2 43260  98.0804  40.5052 0002249 339.0767  21.0350 14.76425887414602"}}, "geometry": {"type": "Point", "coordinates": [48.6953119282272, -43.659811860811686]}}]}